OBJECT_NAME,OBJECT_ID,EPOCH,MEAN_MOTION,ECCENTRICITY,INCLINATION,RA_OF_ASC_NODE,ARG_OF_PERICENTER,MEAN_ANOMALY,EPHEMERIS_TYPE,CLASSIFICATION_TYPE,NORAD_CAT_ID,ELEMENT_SET_NO,REV_AT_EPOCH,BSTAR,MEAN_MOTION_DOT,MEAN_MOTION_DDOT
STARLINK-3957,2022-051AF,2026-06-11T00:57:00.704736,15.08834778,.00013613,53.1609,59.9972,96.6344,263.4803,0,U,52562,999,22567,-.50111554E-4,-.1085E-4,0
STARLINK-3942,2022-051AG,2026-06-11T00:47:03.962400,15.08835067,.00013494,53.1609,75.0297,80.9991,279.1153,0,U,52563,999,22546,.36904927E-4,.299E-5,0
STARLINK-3959,2022-051AH,2026-06-11T00:37:50.445120,15.08851909,.00012985,53.1625,75.0681,85.1459,274.9681,0,U,52564,999,22546,-.2230956E-3,-.3838E-4,0
STARLINK-3911,2022-051AJ,2026-06-11T01:02:18.153888,15.08852526,.00011636,53.1599,59.9830,89.5001,270.6124,0,U,52565,999,22567,.80937691E-4,.1001E-4,0
STARLINK-3938,2022-051AK,2026-06-11T01:40:05.467008,15.08824334,.00014999,53.1601,74.8641,86.7715,273.3448,0,U,52566,999,22547,-.16957885E-3,-.2985E-4,0
STARLINK-3929,2022-051AL,2026-06-11T05:37:10.865856,15.09414529,.00005971,53.1609,59.1174,64.9770,295.1284,0,U,52567,999,22570,.64069891E-2,.104843E-2,0
STARLINK-3930,2022-051AM,2026-06-11T00:35:48.501024,15.08829850,.00010868,53.1608,60.0640,101.9689,258.1425,0,U,52568,999,22567,.70404076E-4,.833E-5,0
STARLINK-3927,2022-051AN,2026-06-11T00:46:24.612384,15.08833623,.00014656,53.1610,60.0254,61.4377,298.6761,0,U,52569,999,22567,.31702735E-4,.216E-5,0
STARLINK-3901,2022-051AQ,2026-06-11T00:41:06.659520,15.08832537,.0001297,53.1607,60.0477,91.7678,268.3462,0,U,52574,999,22567,.50741535E-4,.52E-5,0
STARLINK-3932,2022-051AS,2026-06-11T06:37:32.752992,15.08829256,.00009506,53.1601,58.9339,71.0257,289.0837,0,U,52576,999,22571,.17572353E-3,.2509E-4,0
STARLINK-3836,2022-051AT,2026-06-11T01:29:27.905856,15.08834278,.00013696,53.1591,74.8967,88.6681,271.4468,0,U,52577,999,22547,.18743569E-4,.1E-6,0
STARLINK-3833,2022-051AU,2026-06-11T01:34:46.050528,15.08832548,.00013121,53.1593,74.8797,83.5951,276.5190,0,U,52578,999,22547,.17660424E-4,-.7E-7,0
STARLINK-3893,2022-051AV,2026-06-11T08:00:01.999872,15.33418787,.00011119,53.2173,72.2436,99.0399,24.5913,0,U,52579,999,581,.26481464E-1,.936566E-2,0
STARLINK-3919,2022-051AW,2026-06-10T23:50:09.595104,15.08832520,.00013063,53.1603,75.2134,78.5195,281.5943,0,U,52580,999,22546,.24133126E-4,.96E-6,0
STARLINK-3915,2022-051AX,2026-06-11T00:09:19.179072,15.08842552,.0001559,53.1603,60.1423,89.7737,270.3433,0,U,52581,999,22567,.39993238E-4,.348E-5,0
STARLINK-3895,2022-051AZ,2026-06-11T00:04:00.300864,15.08852628,.00019566,53.1593,60.1627,92.6638,267.4578,0,U,52583,999,22567,-.24196204E-3,-.4139E-4,0
STARLINK-3922,2022-051BA,2026-06-11T00:14:36.834720,15.08831168,.00014557,53.1609,60.1286,91.7812,268.3347,0,U,52584,999,22567,-.6096054E-5,-.385E-5,0
STARLINK-3906,2022-051BB,2026-06-10T23:48:06.449184,15.08826878,.00013592,53.1613,60.1752,89.9423,270.1724,0,U,52585,999,22567,.19641924E-3,.2838E-4,0
STARLINK-3910,2022-051BC,2026-06-10T23:58:42.832704,15.08832434,.000144,53.1599,60.1799,83.9125,276.2031,0,U,52586,999,22567,.9668848E-5,-.134E-5,0
STARLINK-3867,2022-051BD,2026-06-10T23:28:16.199328,15.08836085,.0001613,53.1610,60.1320,87.2126,272.9050,0,U,52587,999,22567,.4512285E-4,.43E-5,0
STARLINK-3917,2022-051BE,2026-06-10T23:42:49.169376,15.08840224,.00014468,53.1616,60.2301,87.1434,272.9723,0,U,52588,999,22567,-.33723582E-4,-.825E-5,0
STARLINK-4019,2022-052A,2026-06-10T21:27:01.401408,15.08836395,.00011569,53.1614,225.6530,87.9742,272.1382,0,U,52598,999,22565,.16827191E-4,-.2E-6,0
STARLINK-4024,2022-052B,2026-06-10T21:09:10.142496,15.08825685,.00010354,53.1609,220.8141,83.8039,276.3070,0,U,52599,999,22572,.87552051E-4,.1105E-4,0
STARLINK-4026,2022-052C,2026-06-10T11:05:01.800096,15.08832704,.00013669,53.1627,222.5944,88.7427,271.3721,0,U,52600,999,22566,-.3050124E-5,-.337E-5,0
STARLINK-4027,2022-052D,2026-06-10T20:47:57.411744,15.08811518,.00011125,53.1613,220.7755,87.7343,272.3776,0,U,52601,999,22572,.17494532E-3,.2495E-4,0
STARLINK-4012,2022-052E,2026-06-10T20:42:39.251520,15.08810012,.00011319,53.1610,220.7906,86.6371,273.4750,0,U,52602,999,22572,.26438824E-3,.3919E-4,0
STARLINK-4016,2022-052F,2026-06-10T10:50:32.080416,15.08822787,.00010442,53.1619,222.6504,100.9666,259.1443,0,U,52603,999,22566,.25283458E-3,.3737E-4,0
STARLINK-4013,2022-052G,2026-06-10T20:32:02.803200,15.08829661,.00011016,53.1621,220.8239,79.0589,281.0526,0,U,52604,999,22492,.5028382E-5,-.208E-5,0
STARLINK-4000,2022-052H,2026-06-10T20:51:16.392672,15.08832490,.00013194,53.1620,225.5418,70.7434,289.3700,0,U,52605,999,22485,-.68592519E-4,-.1379E-4,0
STARLINK-3928,2022-052J,2026-06-10T20:26:46.246560,15.08822207,.00013294,53.1611,220.8420,84.6414,275.4729,0,U,52606,999,22492,.13484975E-4,-.73E-6,0
