1 52562U 22051AF 26162.03959149 -.00001085 00000+0 -50112-4 0 9995 
2 52562 53.1609 59.9972 0001361 96.6344 263.4803 15.08834778225679 
1 52563U 22051AG 26162.03268475 .00000299 00000+0 36905-4 0 9999 
2 52563 53.1609 75.0297 0001349 80.9991 279.1153 15.08835067225460 
1 52564U 22051AH 26162.02627830 -.00003838 00000+0 -22310-3 0 9991 
2 52564 53.1625 75.0681 0001298 85.1459 274.9681 15.08851909225467 
1 52565U 22051AJ 26162.04326567 .00001001 00000+0 80938-4 0 9996 
2 52565 53.1599 59.9830 0001163 89.5001 270.6124 15.08852526225671 
1 52566U 22051AK 26162.06950772 -.00002985 00000+0 -16958-3 0 9994 
2 52566 53.1601 74.8641 0001499 86.7715 273.3448 15.08824334225478 
1 52567U 22051AL 26162.23415354 .00104843 00000+0 64070-2 0 9997 
2 52567 53.1609 59.1174 0000597 64.9770 295.1284 15.09414529225709 
1 52568U 22051AM 26162.02486691 .00000833 00000+0 70404-4 0 9991 
2 52568 53.1608 60.0640 0001086 101.9689 258.1425 15.08829850225671 
1 52569U 22051AN 26162.03222931 .00000216 00000+0 31703-4 0 9992 
2 52569 53.1610 60.0254 0001465 61.4377 298.6761 15.08833623225676 
1 52574U 22051AQ 26162.02854930 .00000520 00000+0 50742-4 0 9999 
2 52574 53.1607 60.0477 0001297 91.7678 268.3462 15.08832537225673 
1 52576U 22051AS 26162.27607353 .00002509 00000+0 17572-3 0 9995 
2 52576 53.1601 58.9339 0000950 71.0257 289.0837 15.08829256225716 
1 52577U 22051AT 26162.06212854 .00000010 00000+0 18744-4 0 9999 
2 52577 53.1591 74.8967 0001369 88.6681 271.4468 15.08834278225477 
1 52578U 22051AU 26162.06581077 -.00000007 00000+0 17660-4 0 9999 
2 52578 53.1593 74.8797 0001312 83.5951 276.5190 15.08832548225479 
1 52579U 22051AV 26162.33335648 .00936566 00000+0 26481-1 0 9996 
2 52579 53.2173 72.2436 0001111 99.0399 24.5913 15.33418787 5813 
1 52580U 22051AW 26161.99316661 .00000096 00000+0 24133-4 0 9998 
2 52580 53.1603 75.2134 0001306 78.5195 281.5943 15.08832520225462 
1 52581U 22051AX 26162.00647198 .00000348 00000+0 39993-4 0 9994 
2 52581 53.1603 60.1423 0001559 89.7737 270.3433 15.08842552225672 
1 52583U 22051AZ 26162.00278126 -.00004139 00000+0 -24196-3 0 9999 
2 52583 53.1593 60.1627 0001956 92.6638 267.4578 15.08852628225674 
1 52584U 22051BA 26162.01014855 -.00000385 00000+0 -60961-5 0 9999 
2 52584 53.1609 60.1286 0001455 91.7812 268.3347 15.08831168225672 
1 52585U 22051BB 26161.99174131 .00002838 00000+0 19642-3 0 9991 
2 52585 53.1613 60.1752 0001359 89.9423 270.1724 15.08826878225678 
1 52586U 22051BC 26161.99910686 -.00000134 00000+0 96688-5 0 9990 
2 52586 53.1599 60.1799 0001440 83.9125 276.2031 15.08832434225670 
1 52587U 22051BD 26161.97796527 .00000430 00000+0 45123-4 0 9990 
2 52587 53.1610 60.1320 0001613 87.2126 272.9050 15.08836085225675 
1 52588U 22051BE 26161.98806909 -.00000825 00000+0 -33724-4 0 9992 
2 52588 53.1616 60.2301 0001446 87.1434 272.9723 15.08840224225674 
1 52598U 22052A 26161.89376622 -.00000020 00000+0 16827-4 0 9999 
2 52598 53.1614 225.6530 0001156 87.9742 272.1382 15.08836395225657 
1 52599U 22052B 26161.88136739 .00001105 00000+0 87552-4 0 9999 
2 52599 53.1609 220.8141 0001035 83.8039 276.3070 15.08825685225725 
1 52600U 22052C 26161.46182639 -.00000337 00000+0 -30501-5 0 9997 
2 52600 53.1627 222.5944 0001366 88.7427 271.3721 15.08832704225661 
1 52601U 22052D 26161.86663671 .00002495 00000+0 17495-3 0 9992 
2 52601 53.1613 220.7755 0001112 87.7343 272.3776 15.08811518225720 
1 52602U 22052E 26161.86295430 .00003919 00000+0 26439-3 0 9997 
2 52602 53.1610 220.7906 0001131 86.6371 273.4750 15.08810012225728 
1 52603U 22052F 26161.45176019 .00003737 00000+0 25283-3 0 9998 
2 52603 53.1619 222.6504 0001044 100.9666 259.1443 15.08822787225668 
1 52604U 22052G 26161.85558800 -.00000208 00000+0 50284-5 0 9997 
2 52604 53.1621 220.8239 0001101 79.0589 281.0526 15.08829661224923 
1 52605U 22052H 26161.86893973 -.00001379 00000+0 -68593-4 0 9994 
2 52605 53.1620 225.5418 0001319 70.7434 289.3700 15.08832490224853 
1 52606U 22052J 26161.85192415 -.00000073 00000+0 13485-4 0 9996 
2 52606 53.1611 220.8420 0001329 84.6414 275.4729 15.08822207224928 
